Results
*******************************************************************************
 Revised: Aug 07, 2025           Alvaldi (2004S35) / (Saturn)               665

 Newly discovered irregular Saturnian satellite
*******************************************************************************


*******************************************************************************
Ephemeris / API_USER Wed Apr 22 07:00:48 2026 Pasadena, USA      / Horizons    
*******************************************************************************
Target body name: Alvaldi (665)                   {source: sat456_merged_DE440}
Center body name: Earth (399)                     {source: sat456_merged_DE440}
Center-site name: GEOCENTRIC
*******************************************************************************
Start time      : A.D. 2020-Jan-01 00:00:00.0000 UT      
Stop  time      : A.D. 2020-Dec-20 00:00:00.0000 UT      
Step-size       : 1440 minutes
*******************************************************************************
Target pole/equ : undefined
Target radii    : undefined                                                    
Center geodetic : 0.0, 0.0, -6378.137             {E-lon(deg),Lat(deg),Alt(km)}
Center cylindric: 0.0, 0.0, 0.0                   {E-lon(deg),Dxy(km),Dz(km)}
Center pole/equ : ITRF93                          {East-longitude positive}
Center radii    : 6378.137, 6378.137, 6356.752 km {Equator_a, b, pole_c}       
Target primary  : Saturn
Vis. interferer : MOON (R_eq= 1737.400) km        {source: sat456_merged_DE440}
Rel. light bend : Sun                             {source: sat456_merged_DE440}
Rel. lght bnd GM: 1.3271E+11 km^3/s^2                                          
Atmos refraction: NO (AIRLESS)
RA format       : HMS
Time format     : CAL 
Calendar mode   : Mixed Julian/Gregorian
EOP file        : eop.260421.p260718                                           
EOP coverage    : DATA-BASED 1962-JAN-20 TO 2026-APR-21. PREDICTS-> 2026-JUL-17
Units conversion: 1 au= 149597870.700 km, c= 299792.458 km/s, 1 day= 86400.0 s 
Table cut-offs 1: Elevation (-90.0deg=NO ),Airmass (>38.000=NO), Daylight (NO )
Table cut-offs 2: Solar elongation (  0.0,180.0=NO ),Local Hour Angle( 0.0=NO )
Table cut-offs 3: RA/DEC angular rate (     0.0=NO )                           
**************************************************************************************************************************
 Date__(UT)__HR:MN     R.A._____(ICRF)_____DEC    APmag   S-brt             delta      deldot     S-O-T /r     S-T-O  Cnst
**************************************************************************************************************************
$$SOE
 2020-Oct-22 00:00     19 50 38.73 -21 22 28.7     n.a.    n.a.  9.88991999054324  28.9463757   86.8539 /T    5.7677   Sgr
 2020-Oct-23 00:00     19 50 49.87 -21 22 02.8     n.a.    n.a.  9.90663241255312  28.9258079   85.9023 /T    5.7600   Sgr
 2020-Oct-24 00:00     19 51 01.40 -21 21 35.7     n.a.    n.a.  9.92333069030795  28.8974278   84.9517 /T    5.7507   Sgr
 2020-Oct-25 00:00     19 51 13.33 -21 21 07.6     n.a.    n.a.  9.94001036045992  28.8613992   84.0022 /T    5.7399   Sgr
 2020-Oct-26 00:00     19 51 25.64 -21 20 38.4     n.a.    n.a.  9.95666704648591  28.8178597   83.0539 /T    5.7275   Sgr
 2020-Oct-27 00:00     19 51 38.34 -21 20 08.1     n.a.    n.a.  9.97329644495157  28.7669256   82.1065 /T    5.7136   Sgr
 2020-Oct-28 00:00     19 51 51.43 -21 19 36.7     n.a.    n.a.  9.98989431453749  28.7086963   81.1602 /T    5.6981   Sgr
 2020-Oct-29 00:00     19 52 04.89 -21 19 04.2     n.a.    n.a.  10.0064564671821  28.6432572   80.2150 /T    5.6811   Sgr
 2020-Oct-30 00:00     19 52 18.73 -21 18 30.6     n.a.    n.a.  10.0229787603898  28.5706808   79.2707 /T    5.6626   Sgr
 2020-Oct-31 00:00     19 52 32.94 -21 17 55.9     n.a.    n.a.  10.0394570898638  28.4910267   78.3274 /T    5.6426   Sgr
 2020-Nov-01 00:00     19 52 47.53 -21 17 20.2     n.a.    n.a.  10.0558873819277  28.4043412   77.3850 /T    5.6211   Sgr
 2020-Nov-02 00:00     19 53 02.48 -21 16 43.3     n.a.    n.a.  10.0722655855529  28.3106565   76.4436 /T    5.5981   Sgr
 2020-Nov-03 00:00     19 53 17.79 -21 16 05.4     n.a.    n.a.  10.0885876640797  28.2099901   75.5031 /T    5.5737   Sgr
 2020-Nov-04 00:00     19 53 33.47 -21 15 26.5     n.a.    n.a.  10.1048495868452  28.1023452   74.5635 /T    5.5478   Sgr
 2020-Nov-05 00:00     19 53 49.50 -21 14 46.4     n.a.    n.a.  10.1210473208656  27.9877105   73.6248 /T    5.5205   Sgr
 2020-Nov-06 00:00     19 54 05.89 -21 14 05.3     n.a.    n.a.  10.1371768225188  27.8660605   72.6869 /T    5.4918   Sgr
 2020-Nov-07 00:00     19 54 22.64 -21 13 23.1     n.a.    n.a.  10.1532340289201  27.7373538   71.7498 /T    5.4616   Sgr
 2020-Nov-08 00:00     19 54 39.73 -21 12 39.9     n.a.    n.a.  10.1692148485335  27.6015320   70.8136 /T    5.4300   Sgr
 2020-Nov-09 00:00     19 54 57.16 -21 11 55.6     n.a.    n.a.  10.1851151506809  27.4585180   69.8782 /T    5.3970   Sgr
 2020-Nov-10 00:00     19 55 14.94 -21 11 10.2     n.a.    n.a.  10.2009307544445  27.3082151   68.9436 /T    5.3627   Sgr
 2020-Nov-11 00:00     19 55 33.06 -21 10 23.8     n.a.    n.a.  10.2166574186223  27.1505125   68.0098 /T    5.3269   Sgr
 2020-Nov-12 00:00     19 55 51.52 -21 09 36.4     n.a.    n.a.  10.2322908364594  26.9852970   67.0767 /T    5.2899   Sgr
 2020-Nov-13 00:00     19 56 10.30 -21 08 47.9     n.a.    n.a.  10.2478266406168  26.8124766   66.1445 /T    5.2514   Sgr
 2020-Nov-14 00:00     19 56 29.42 -21 07 58.3     n.a.    n.a.  10.2632604238610  26.6320105   65.2131 /T    5.2116   Sgr
 2020-Nov-15 00:00     19 56 48.86 -21 07 07.7     n.a.    n.a.  10.2785877775538  26.4439386   64.2824 /T    5.1706   Sgr
 2020-Nov-16 00:00     19 57 08.62 -21 06 16.1     n.a.    n.a.  10.2938043431637  26.2483949   63.3527 /T    5.1282   Sgr
 2020-Nov-17 00:00     19 57 28.69 -21 05 23.5     n.a.    n.a.  10.3089058650606  26.0455980   62.4237 /T    5.0845   Sgr
 2020-Nov-18 00:00     19 57 49.08 -21 04 29.8     n.a.    n.a.  10.3238882308955  25.8358193   61.4956 /T    5.0395   Sgr
 2020-Nov-19 00:00     19 58 09.77 -21 03 35.1     n.a.    n.a.  10.3387474909973  25.6193444   60.5684 /T    4.9933   Sgr
 2020-Nov-20 00:00     19 58 30.77 -21 02 39.4     n.a.    n.a.  10.3534798569292  25.3964419   59.6420 /T    4.9459   Sgr
 2020-Nov-21 00:00     19 58 52.06 -21 01 42.7     n.a.    n.a.  10.3680816859416  25.1673461   58.7165 /T    4.8973   Sgr
 2020-Nov-22 00:00     19 59 13.64 -21 00 45.0     n.a.    n.a.  10.3825494597477  24.9322541   57.7918 /T    4.8474   Sgr
 2020-Nov-23 00:00     19 59 35.51 -20 59 46.4     n.a.    n.a.  10.3968797639841  24.6913298   56.8680 /T    4.7964   Sgr
 2020-Nov-24 00:00     19 59 57.66 -20 58 46.7     n.a.    n.a.  10.4110692715172  24.4447126   55.9449 /T    4.7442   Sgr
 2020-Nov-25 00:00     20 00 20.09 -20 57 46.0     n.a.    n.a.  10.4251147301832  24.1925239   55.0227 /T    4.6909   Sgr
 2020-Nov-26 00:00     20 00 42.79 -20 56 44.4     n.a.    n.a.  10.4390129540884  23.9348724   54.1013 /T    4.6365   Sgr
 2020-Nov-27 00:00     20 01 05.76 -20 55 41.8     n.a.    n.a.  10.4527608170662  23.6718564   53.1806 /T    4.5809   Sgr
 2020-Nov-28 00:00     20 01 29.00 -20 54 38.3     n.a.    n.a.  10.4663552468580  23.4035641   52.2607 /T    4.5243   Sgr
 2020-Nov-29 00:00     20 01 52.49 -20 53 33.8     n.a.    n.a.  10.4797932188757  23.1300720   51.3415 /T    4.4666   Sgr
 2020-Nov-30 00:00     20 02 16.24 -20 52 28.3     n.a.    n.a.  10.4930717488108  22.8514426   50.4231 /T    4.4078   Sgr
 2020-Dec-01 00:00     20 02 40.24 -20 51 21.9     n.a.    n.a.  10.5061878837967  22.5677221   49.5053 /T    4.3480   Sgr
 2020-Dec-02 00:00     20 03 04.48 -20 50 14.6     n.a.    n.a.  10.5191386923089  22.2789379   48.5882 /T    4.2871   Sgr
 2020-Dec-03 00:00     20 03 28.97 -20 49 06.4     n.a.    n.a.  10.5319212533327  21.9850989   47.6717 /T    4.2253   Sgr
 2020-Dec-04 00:00     20 03 53.69 -20 47 57.2     n.a.    n.a.  10.5445326454990  21.6861953   46.7558 /T    4.1624   Sgr
 2020-Dec-05 00:00     20 04 18.65 -20 46 47.2     n.a.    n.a.  10.5569699368410  21.3822004   45.8406 /T    4.0986   Sgr
 2020-Dec-06 00:00     20 04 43.83 -20 45 36.2     n.a.    n.a.  10.5692301756604  21.0730730   44.9259 /T    4.0339   Sgr
 2020-Dec-07 00:00     20 05 09.25 -20 44 24.4     n.a.    n.a.  10.5813103828713  20.7587601   44.0118 /T    3.9681   Sgr
 2020-Dec-08 00:00     20 05 34.88 -20 43 11.6     n.a.    n.a.  10.5932075463381  20.4392010   43.0982 /T    3.9015   Sgr
 2020-Dec-09 00:00     20 06 00.72 -20 41 58.0     n.a.    n.a.  10.6049186182801  20.1143345   42.1852 /T    3.8339   Sgr
 2020-Dec-10 00:00     20 06 26.78 -20 40 43.5     n.a.    n.a.  10.6164405177512  19.7841092   41.2726 /T    3.7655   Sgr
 2020-Dec-11 00:00     20 06 53.05 -20 39 28.1     n.a.    n.a.  10.6277701411043  19.4485010   40.3606 /T    3.6962   Sgr
 2020-Dec-12 00:00     20 07 19.51 -20 38 11.9     n.a.    n.a.  10.6389043833915  19.1075333   39.4492 /T    3.6260   Sgr
 2020-Dec-13 00:00     20 07 46.18 -20 36 54.8     n.a.    n.a.  10.6498401718405  18.7612968   38.5382 /T    3.5550   Cap
 2020-Dec-14 00:00     20 08 13.03 -20 35 36.9     n.a.    n.a.  10.6605745085584  18.4099606   37.6279 /T    3.4831   Cap
 2020-Dec-15 00:00     20 08 40.08 -20 34 18.2     n.a.    n.a.  10.6711045148450  18.0537659   36.7180 /T    3.4105   Cap
 2020-Dec-16 00:00     20 09 07.30 -20 32 58.6     n.a.    n.a.  10.6814274668339  17.6930026   35.8087 /T    3.3370   Cap
 2020-Dec-17 00:00     20 09 34.70 -20 31 38.2     n.a.    n.a.  10.6915408143914  17.3279767   34.9000 /T    3.2628   Cap
 2020-Dec-18 00:00     20 10 02.27 -20 30 17.1     n.a.    n.a.  10.7014421811299  16.9589796   33.9919 /T    3.1879   Cap
 2020-Dec-19 00:00     20 10 30.01 -20 28 55.1     n.a.    n.a.  10.7111293497043  16.5862686   33.0844 /T    3.1123   Cap
